[{"OBJECT_NAME":"STARLINK-6349","OBJECT_ID":"2023-094Z","EPOCH":"2026-03-08T06:57:23.992128","MEAN_MOTION":15.03162086,"ECCENTRICITY":7.428e-5,"INCLINATION":43.0026,"RA_OF_ASC_NODE":25.4269,"ARG_OF_PERICENTER":85.9671,"MEAN_ANOMALY":274.1256,"EPHEMERIS_TYPE":0,"CLASSIFICATION_TYPE":"U","NORAD_CAT_ID":57241,"ELEMENT_SET_NO":999,"REV_AT_EPOCH":14705,"BSTAR":0.005495395,"MEAN_MOTION_DOT":0.00076097,"MEAN_MOTION_DDOT":0},{"OBJECT_NAME":"OBJECT C","OBJECT_ID":"2025-292C","EPOCH":"2026-03-09T21:40:07.439232","MEAN_MOTION":15.0561637,"ECCENTRICITY":0.00142936,"INCLINATION":97.6364,"RA_OF_ASC_NODE":145.6037,"ARG_OF_PERICENTER":339.8589,"MEAN_ANOMALY":20.2072,"EPHEMERIS_TYPE":0,"CLASSIFICATION_TYPE":"U","NORAD_CAT_ID":66995,"ELEMENT_SET_NO":999,"REV_AT_EPOCH":1350,"BSTAR":0.00047642755,"MEAN_MOTION_DOT":6.828e-5,"MEAN_MOTION_DDOT":0}]
